     2.100          NAVIGATION                              RINEX VERSION / TYPE
fic2rin                                 05/09/2012 00:21:27 PGM / RUN BY / DATE
                                                            END OF HEADER
28 12  5  8  1 59 44.0  .141667667776D-03  .409272615798D-11  .000000000000D+00
     .210000000000D+02 -.121468750000D+03  .380694428880D-08 -.288053936669D+01
    -.632181763649D-05  .178593529854D-01  .109374523163D-04  .515363657951D+04
     .179984000000D+06  .316649675369D-06 -.289910451833D+01 -.633299350739D-07
     .979120832953D+00  .173562500000D+03 -.182975472086D+01 -.734173438413D-08
     .206794328100D-09  .100000000000D+01  .168700000000D+04  .000000000000D+00
     .240000000000D+01  .000000000000D+00 -.107102096081D-07  .210000000000D+02
     .172806000000D+06  .400000000000D+01
29 12  5  8  1 59 44.0  .310812611133D-03  .397903932026D-11  .000000000000D+00
     .800000000000D+01  .250625000000D+02  .480627162908D-08 -.652878460837D+00
     .141188502312D-05  .230513454881D-02  .810436904430D-05  .515358157158D+04
     .179984000000D+06 -.335276126862D-07 -.185700860818D+01 -.149011611938D-07
     .963006743496D+00  .223437500000D+03 -.114974600098D+01 -.808962267954D-08
     .604310886260D-09  .100000000000D+01  .168700000000D+04  .000000000000D+00
     .240000000000D+01  .000000000000D+00 -.931322574615D-08  .800000000000D+01
     .172806000000D+06  .400000000000D+01
 1 12  5  8  2  0  0.0  .255139544606D-03  .261479726760D-11  .000000000000D+00
     .730000000000D+02 -.209375000000D+02  .501842332319D-08  .436319542049D+00
    -.107288360596D-05  .669736647978D-03  .574626028538D-05  .515364158821D+04
     .180000000000D+06  .931322574615D-08 -.857603387629D+00 -.111758708954D-07
     .959919753745D+00  .263687500000D+03  .350015147856D+00 -.819462705339D-08
    -.485020203038D-09  .100000000000D+01  .168700000000D+04  .000000000000D+00
     .340000000000D+01  .000000000000D+00  .838190317154D-08  .730000000000D+02
     .172806000000D+06  .400000000000D+01
 2 12  5  8  2  0  0.0  .389439985156D-03  .136424205266D-11  .000000000000D+00
     .108000000000D+03 -.190312500000D+02  .552130141294D-08  .145934213548D+01
    -.841915607452D-06  .111933968728D-01  .576116144657D-05  .515367942429D+04
     .180000000000D+06 -.372529029846D-07 -.870902967530D+00  .178813934326D-06
     .938460190885D+00  .259781250000D+03 -.279510973460D+01 -.855285626079D-08
    -.572523847916D-09  .100000000000D+01  .168700000000D+04  .000000000000D+00
     .240000000000D+01  .000000000000D+00 -.172294676304D-07  .108000000000D+03
     .172806000000D+06  .400000000000D+01
 3 12  5  8  2  0  0.0  .459458678961D-04  .500222085975D-11  .000000000000D+00
     .940000000000D+02  .768750000000D+01  .541486840815D-08  .162803156738D+01
     .227242708206D-06  .152067482704D-01  .988505780697D-05  .515371258163D+04
     .180000000000D+06 -.307336449623D-06 -.203500665072D+01 -.232830643654D-06
     .930852333690D+00  .175875000000D+03  .118527359266D+01 -.834070456668D-08
     .715744099329D-09  .100000000000D+01  .168700000000D+04  .000000000000D+00
     .240000000000D+01  .000000000000D+00 -.465661287308D-08  .940000000000D+02
     .172806000000D+06  .400000000000D+01
 4 12  5  8  2  0  0.0  .176637899131D-03  .115960574476D-10  .000000000000D+00
     .670000000000D+02 -.221875000000D+02  .542736892884D-08 -.166232306497D+01
    -.112876296043D-05  .999581394717D-02  .534392893314D-05  .515358543205D+04
     .180000000000D+06  .175088644028D-06 -.853972362051D+00 -.484287738800D-07
     .937534669911D+00  .262343750000D+03  .850614786583D+00 -.835141929871D-08
    -.367158150754D-09  .100000000000D+01  .168700000000D+04  .000000000000D+00
     .240000000000D+01  .000000000000D+00 -.605359673500D-08  .670000000000D+02
     .172806000000D+06  .400000000000D+01
 5 12  5  8  2  0  0.0 -.312971882522D-03 -.386535248253D-11  .000000000000D+00
     .660000000000D+02  .539062500000D+02  .438303971405D-08 -.278020911521D+01
     .281073153019D-05  .267559417989D-02  .120960175991D-04  .515365970421D+04
     .180000000000D+06  .111758708954D-07  .192035996693D+00  .447034835815D-07
     .951646069867D+00  .143156250000D+03  .248700949381D+00 -.783139763772D-08
    -.396445084958D-09  .100000000000D+01  .168700000000D+04  .000000000000D+00
     .240000000000D+01  .000000000000D+00 -.102445483208D-07  .660000000000D+02
     .172806000000D+06  .400000000000D+01
 6 12  5  8  2  0  0.0  .274358317256D-04 -.216004991671D-11  .000000000000D+00
     .440000000000D+02  .234375000000D+02  .524950437721D-08 -.275424628381D+01
     .132247805595D-05  .731659936719D-02  .918470323086D-05  .515368676949D+04
     .180000000000D+06 -.689178705215D-07 -.195851622783D+01  .137835741043D-06
     .937685302197D+00  .188843750000D+03 -.556797272476D+00 -.810962351266D-08
     .703600736366D-09  .100000000000D+01  .168700000000D+04  .000000000000D+00
     .240000000000D+01  .000000000000D+00 -.512227416039D-08  .440000000000D+02
     .172806000000D+06  .400000000000D+01
 7 12  5  8  2  0  0.0  .792588107288D-04  .341060513165D-11  .000000000000D+00
     .800000000000D+02 -.749375000000D+02  .448197240643D-08  .604095387455D-01
    -.387988984585D-05  .531206279993D-02  .784173607826D-06  .515361090088D+04
     .180000000000D+06  .447034835815D-07  .230330705677D+01  .968575477600D-07
     .975710292536D+00  .371906250000D+03 -.302986395594D+01 -.848035324075D-08
    -.138577200868D-09  .100000000000D+01  .168700000000D+04  .000000000000D+00
     .240000000000D+01  .000000000000D+00 -.107102096081D-07  .800000000000D+02
     .172806000000D+06  .400000000000D+01
 8 12  5  8  2  0  0.0  .118510797620D-05  .113686837722D-12  .000000000000D+00
     .118000000000D+03 -.831562500000D+02  .396695095372D-08 -.614797034044D+00
    -.433251261711D-05  .122120559681D-01  .186078250408D-05  .515368173790D+04
     .180000000000D+06  .292435288429D-06  .238622504138D+01  .223517417908D-07
     .997923416202D+00  .358125000000D+03 -.297168376683D+01 -.816819738106D-08
    -.139291516336D-09  .100000000000D+01  .168700000000D+04  .000000000000D+00
     .340000000000D+01  .000000000000D+00 -.372529029846D-08  .118000000000D+03
     .172806000000D+06  .400000000000D+01
 9 12  5  8  2  0  0.0  .156695488840D-03  .261479726760D-11  .000000000000D+00
     .630000000000D+02 -.678750000000D+02  .433625205087D-08 -.637241806399D+00
    -.354088842869D-05  .174845260335D-01  .189244747162D-05  .515362279701D+04
     .180000000000D+06 -.186264514923D-06  .227742324489D+01  .260770320892D-07
     .984438714258D+00  .361187500000D+03  .161272475415D+01 -.856285667735D-08
    -.567880797372D-10  .100000000000D+01  .168700000000D+04  .000000000000D+00
     .240000000000D+01  .000000000000D+00 -.558793544769D-08  .630000000000D+02
     .172806000000D+06  .400000000000D+01
10 12  5  8  2  0  0.0 -.376128591597D-04 -.113686837722D-11  .000000000000D+00
     .184000000000D+03  .561250000000D+02  .435268130665D-08 -.247898702515D+01
     .287778675556D-05  .112627597991D-01  .123754143715D-04  .515370207977D+04
     .180000000000D+06 -.298023223877D-07  .213702841878D+00 -.651925802231D-07
     .946529358816D+00  .132593750000D+03  .749185877776D+00 -.767389107694D-08
    -.349657421778D-09  .100000000000D+01  .168700000000D+04  .000000000000D+00
     .240000000000D+01  .000000000000D+00 -.232830643654D-08  .184000000000D+03
     .172806000000D+06  .400000000000D+01
11 12  5  8  2  0  0.0 -.259059946984D-03 -.375166564481D-11  .000000000000D+00
     .130000000000D+02 -.515625000000D+01  .694528929918D-08  .170129826887D+00
    -.689178705215D-07  .128748945426D-01  .438466668129D-05  .515366324997D+04
     .180000000000D+06 -.113621354103D-06 -.112617812447D+01  .152736902237D-06
     .887721510558D+00  .253750000000D+03  .104328924169D+01 -.941360640021D-08
    -.183936233111D-09  .100000000000D+01  .168700000000D+04  .000000000000D+00
     .240000000000D+01  .000000000000D+00 -.116415321827D-07  .130000000000D+02
     .172806000000D+06  .400000000000D+01
12 12  5  8  2  0  0.0  .677364878356D-04  .216004991671D-11  .000000000000D+00
     .700000000000D+01 -.106500000000D+03  .397480842387D-08 -.151601409116D+00
    -.553764402866D-05  .411085353699D-02  .111609697342D-04  .515380886650D+04
     .180000000000D+06  .633299350739D-07 -.292398969991D+01  .558793544769D-08
     .979928660705D+00  .177437500000D+03  .254708257164D-01 -.769639201419D-08
     .128576784311D-09  .100000000000D+01  .168700000000D+04  .000000000000D+00
     .240000000000D+01  .000000000000D+00 -.121071934700D-07  .700000000000D+01
     .172806000000D+06  .400000000000D+01
13 12  5  8  2  0  0.0  .208775512874D-03 -.238742359215D-11  .000000000000D+00
     .720000000000D+02  .143156250000D+03  .388623330579D-08  .234897076895D+01
     .741705298424D-05  .498939224053D-02  .408478081226D-05  .515368158722D+04
     .180000000000D+06  .298023223877D-07  .133222208257D+01 -.186264514923D-08
     .985773106207D+00  .311625000000D+03  .198052397974D+01 -.797997525514D-08
     .359300680601D-09  .100000000000D+01  .168700000000D+04  .000000000000D+00
     .240000000000D+01  .000000000000D+00 -.111758708954D-07  .720000000000D+02
     .172806000000D+06  .400000000000D+01
14 12  5  8  2  0  0.0  .202180352062D-03  .102318153949D-11  .000000000000D+00
     .440000000000D+02  .144437500000D+03  .399302346831D-08  .248974147285D+01
     .750832259655D-05  .624905026052D-02  .369735062122D-05  .515359026337D+04
     .180000000000D+06  .130385160446D-06  .130564137455D+01 -.109896063805D-06
     .978639895708D+00  .317656250000D+03 -.206508140252D+01 -.800426198107D-08
     .448947271884D-09  .100000000000D+01  .168700000000D+04  .000000000000D+00
     .240000000000D+01  .000000000000D+00 -.884756445885D-08  .440000000000D+02
     .172806000000D+06  .400000000000D+01
